KUIPER-00035            
1 63748U 25088AA  26004.82402739  .00003990  00000+0  55159-3 0  9996
2 63748  51.9016  36.5276 0005540 220.1728 139.8825 14.79974656 38057
KUIPER-00037            
1 63749U 25088AB  26004.42053339 -.00018416  00000+0 -23939-2 0  9992
2 63749  51.9011  37.2568 0000188 111.0068 249.0914 14.79922305 38791
KUIPER-00038            
1 63750U 25088AC  26004.77427109  .00001738  00000+0  25684-3 0  9999
2 63750  51.9036  20.7116 0006370 225.2915 134.7529 14.79956659 38054
KUIPER-00039            
1 64500U 25134A   26005.16670139 -.00021140  00000+0 -27523-2 0  9996
2 64500  51.9000 153.9813 0005192  88.2226 349.1497 14.79926588  4557
KUIPER-00040            
1 64501U 25134B   26005.13982322  .00003622  00000+0  50329-3 0  9998
2 64501  51.8988 165.2524 0017109  58.6153 301.6480 14.79934645 30500
KUIPER-00041            
1 64502U 25134C   26005.13866936  .00003697  00000+0  51294-3 0  9995
2 64502  51.8971 166.6102 0012577  60.9801 299.2420 14.79975984 30484
KUIPER-00042            
1 64503U 25134D   26005.14241464  .00003998  00000+0  55261-3 0  9992
2 64503  51.8979 162.5988 0012717  70.4638 289.7696 14.79953788 30544
KUIPER-00043            
1 64504U 25134E   26005.15060648  .00005085  00000+0  69583-3 0  9998
2 64504  51.9005 155.0149 0003517  92.6306 267.5059 14.79913487 30659
